     2.10           N: GPS NAV DATA                         RINEX VERSION / TYPE
teqc  2009Mar23                         20140524 00:19:15UTCPGM / RUN BY / DATE
    16                                                      LEAP SECONDS
Linux 2.4.20-8|Pentium IV|gcc -static|Linux|486/DX+         COMMENT
teqc  2009Mar23                         20140523 01:05:03UTCCOMMENT
                                                            END OF HEADER
 5 14  5 23 10  0  0.0-3.709495067596D-04 2.614797267597D-12 0.000000000000D+00
    1.600000000000D+01 6.528125000000D+01 4.907704425588D-09 2.865970924793D+00
    3.419816493988D-06 3.564642509446D-03 1.105666160583D-05 5.153601888657D+03
    4.680000000000D+05-3.352761268616D-08-5.336262900312D-01-1.676380634308D-08
    9.474156809002D-01 1.595312500000D+02 3.092112773308D-01-8.095337203288D-09
    2.242950570751D-10 1.000000000000D+00 1.793000000000D+03 0.000000000000D+00
    2.000000000000D+00 0.000000000000D+00-1.024454832077D-08 1.600000000000D+01
    4.637400000000D+05 4.000000000000D+00
 7 14  5 23 10  0  0.0 3.494271077216D-04 4.206412995700D-12 0.000000000000D+00
    2.600000000000D+01-4.690625000000D+01 4.222675891400D-09-7.370722358229D-01
   -2.661719918251D-06 7.342683849856D-03 7.864087820053D-06 5.153630054474D+03
    4.680000000000D+05 1.918524503708D-07 1.588450849971D+00 2.421438694000D-08
    9.732571676333D-01 2.358750000000D+02-2.838743416806D+00-8.031405968867D-09
   -4.625192657839D-10 1.000000000000D+00 1.793000000000D+03 0.000000000000D+00
    2.000000000000D+00 0.000000000000D+00-1.071020960808D-08 2.600000000000D+01
    4.622700000000D+05 4.000000000000D+00
24 14  5 23 10  0  0.0-2.885563299060D-05-6.821210263297D-13 0.000000000000D+00
    5.300000000000D+01-6.081250000000D+01 4.689481049995D-09 7.427781634634D-02
   -3.244727849960D-06 2.081070444547D-03 7.541850209236D-06 5.153733119965D+03
    4.680000000000D+05 4.842877388000D-08 1.553839631635D+00 7.450580596924D-09
    9.566228308607D-01 2.275937500000D+02 3.454188055426D-01-8.316060683022D-09
   -5.043067206849D-10 1.000000000000D+00 1.793000000000D+03 0.000000000000D+00
    2.000000000000D+00 0.000000000000D+00 2.793967723846D-09 5.300000000000D+01
    4.646100000000D+05 4.000000000000D+00
19 14  5 23 10  0  0.0-4.584924317896D-04-2.160049916711D-12 0.000000000000D+00
    2.400000000000D+01-7.343750000000D+00 4.671266005551D-09 1.239970766925D+00
   -3.576278686523D-07 1.033908221871D-02 5.198642611504D-06 5.153613286972D+03
    4.680000000000D+05-1.676380634308D-08-2.530740784838D+00 1.136213541031D-07
    9.658350512952D-01 2.822500000000D+02 4.312487812542D-01-8.356776664720D-09
    7.678891285216D-11 1.000000000000D+00 1.793000000000D+03 0.000000000000D+00
    2.000000000000D+00 0.000000000000D+00-1.490116119385D-08 2.400000000000D+01
    4.647300000000D+05 4.000000000000D+00
14 14  5 23 10  0  0.0 1.703361049294D-04-3.410605131648D-12 0.000000000000D+00
    4.400000000000D+01 4.037500000000D+01 4.655551065246D-09 1.947274717660D+00
    1.864507794380D-06 7.505434099585D-03 4.405155777931D-06 5.153659004211D+03
    4.680000000000D+05-7.450580596924D-08 5.919285084498D-01-1.378357410431D-07
    9.704185652798D-01 3.000312500000D+02-2.001852234004D+00-8.251415133132D-09
   -5.321650239522D-11 1.000000000000D+00 1.793000000000D+03 0.000000000000D+00
    2.000000000000D+00 0.000000000000D+00-9.313225746155D-09 4.400000000000D+01
    4.662000000000D+05 4.000000000000D+00
21 14  5 23  9 59 44.0-3.627338446677D-04-2.273736754432D-12 0.000000000000D+00
    2.000000000000D+00-5.628125000000D+01 5.185930300527D-09-1.704951780965D+00
   -2.764165401459D-06 2.150759974029D-02 7.916241884232D-06 5.153754352570D+03
    4.679840000000D+05 4.507601261139D-07-1.584191163144D+00 7.450580596924D-09
    9.319926827219D-01 2.004687500000D+02-2.024581873081D+00-8.193912737927D-09
   -1.028614274485D-10 1.000000000000D+00 1.793000000000D+03 0.000000000000D+00
    2.000000000000D+00 0.000000000000D+00-1.117587089539D-08 2.000000000000D+00
    4.663200000000D+05 4.000000000000D+00
 3 14  5 23 12  0  0.0 3.686244599521D-04 5.115907697473D-12 0.000000000000D+00
    6.900000000000D+01 1.356250000000D+01 5.203431029503D-09 1.681327276361D+00
    3.762543201447D-07 1.700161839835D-02 5.686655640602D-06 5.153790912628D+03
    4.752000000000D+05-6.705522537231D-08-2.776199849239D+00-4.116445779800D-07
    9.385233757800D-01 2.588750000000D+02 1.383565152871D+00-8.535355531818D-09
    3.450143712334D-10 1.000000000000D+00 1.793000000000D+03 0.000000000000D+00
    2.000000000000D+00 0.000000000000D+00-4.656612873077D-09 6.900000000000D+01
    4.715700000000D+05 4.000000000000D+00
 6 14  5 23 12  0  0.0 3.681052476168D-06 6.252776074689D-12 0.000000000000D+00
    1.070000000000D+02-5.884375000000D+01 4.445185159804D-09-7.355111647180D-01
   -3.231689333916D-06 3.549961838871D-04 8.422881364822D-06 5.181236881256D+03
    4.752000000000D+05-2.421438694000D-08-1.580927272949D+00-4.842877388000D-08
    9.604479330030D-01 2.100625000000D+02 2.460046553099D+00-7.828897533578D-09
   -2.210806374674D-10 1.000000000000D+00 1.793000000000D+03 0.000000000000D+00
    4.000000000000D+00 6.300000000000D+01 6.053596735001D-09 1.070000000000D+02
    4.706700000000D+05 4.000000000000D+00
14 14  5 23 12  0  0.0 1.703109592199D-04-3.410605131648D-12 0.000000000000D+00
    4.800000000000D+01 3.800000000000D+01 4.726625454351D-09 2.997470742311D+00
    1.970678567886D-06 7.505686604418D-03 4.194676876068D-06 5.153658588409D+03
    4.752000000000D+05 3.539025783539D-08 5.918691885846D-01-1.527369022369D-07
    9.704182887883D-01 3.007187500000D+02-2.001857181593D+00-8.238557454701D-09
   -3.000124967247D-11 1.000000000000D+00 1.793000000000D+03 0.000000000000D+00
    2.000000000000D+00 0.000000000000D+00-9.313225746155D-09 4.800000000000D+01
    4.706700000000D+05 4.000000000000D+00
15 14  5 23 12  0  0.0-1.811073161662D-04-2.160049916711D-12 0.000000000000D+00
    8.300000000000D+01 4.656250000000D+01 5.569517707054D-09 2.383172604293D+00
    2.447515726089D-06 6.259993067943D-03 4.254281520844D-06 5.153690299988D+03
    4.752000000000D+05-2.030283212662D-07 4.800139982583D-01 0.000000000000D+00
    9.370515265859D-01 2.862500000000D+02 2.752919329340D-01-8.670003997610D-09
    8.607501394126D-11 1.000000000000D+00 1.793000000000D+03 0.000000000000D+00
    2.000000000000D+00 0.000000000000D+00-1.024454832077D-08 8.300000000000D+01
    4.706700000000D+05 4.000000000000D+00
18 14  5 23 12  0  0.0 3.210064023733D-04 2.387423592154D-12 0.000000000000D+00
    2.900000000000D+01 7.050000000000D+01 5.272362472203D-09-1.616160763972D+00
    3.766268491745D-06 1.529575476889D-02 1.048110425472D-05 5.153697837830D+03
    4.752000000000D+05 3.501772880554D-07-5.388648650846D-01 1.061707735062D-07
    9.259764160288D-01 1.530312500000D+02-2.038425589751D+00-8.233557246422D-09
    2.950122884460D-10 1.000000000000D+00 1.793000000000D+03 0.000000000000D+00
    2.000000000000D+00 0.000000000000D+00-1.117587089539D-08 2.900000000000D+01
    4.706700000000D+05 4.000000000000D+00
19 14  5 23 12  0  0.0-4.585082642734D-04-2.160049916711D-12 0.000000000000D+00
    2.500000000000D+01-1.843750000000D+00 4.635907389865D-09 2.290260980094D+00
   -1.452863216400D-07 1.033929770347D-02 5.196779966354D-06 5.153611852646D+03
    4.752000000000D+05-1.918524503708D-07-2.530801386219D+00-1.676380634308D-08
    9.658364556966D-01 2.829687500000D+02 4.311782627511D-01-8.222842514396D-09
    2.035799084918D-10 1.000000000000D+00 1.793000000000D+03 0.000000000000D+00
    2.000000000000D+00 0.000000000000D+00-1.490116119385D-08 2.500000000000D+01
    4.706700000000D+05 4.000000000000D+00
21 14  5 23 11 59 44.0-3.627501428127D-04-2.273736754432D-12 0.000000000000D+00
    3.800000000000D+01-4.850000000000D+01 5.381295581132D-09-6.548719880812D-01
   -2.212822437286D-06 2.150755026378D-02 9.080395102501D-06 5.153752069473D+03
    4.751840000000D+05-5.587935447693D-08-1.584251953241D+00 3.390014171600D-07
    9.319889025416D-01 1.936562500000D+02-2.024523594814D+00-8.811081302617D-09
   -1.842933908452D-10 1.000000000000D+00 1.793000000000D+03 0.000000000000D+00
    2.000000000000D+00 0.000000000000D+00-1.117587089539D-08 3.800000000000D+01
    4.706700000000D+05 4.000000000000D+00
22 14  5 23 12  0  0.0 2.363631501794D-04 2.955857780762D-12 0.000000000000D+00
    3.900000000000D+01 5.565625000000D+01 5.281291415558D-09-2.173747073017D+00
    2.766028046608D-06 7.238497957587D-03 1.075491309166D-05 5.153732019424D+03
    4.752000000000D+05 1.378357410431D-07-5.369729448157D-01 2.607703208923D-08
    9.237524396884D-01 1.476562500000D+02-2.059335974626D+00-8.302131531388D-09
    2.992981812563D-10 1.000000000000D+00 1.793000000000D+03 0.000000000000D+00
    2.000000000000D+00 0.000000000000D+00-1.722946763039D-08 3.900000000000D+01
    4.706700000000D+05 4.000000000000D+00
24 14  5 23 12  0  0.0-2.886028960347D-05-6.821210263297D-13 0.000000000000D+00
    5.400000000000D+01-5.403125000000D+01 4.734482924503D-09 1.124272441066D+00
   -2.665445208549D-06 2.081875689328D-03 7.566064596176D-06 5.153734699249D+03
    4.752000000000D+05 1.005828380585D-07 1.553779549589D+00 3.725290298462D-08
    9.566192262306D-01 2.284375000000D+02 3.455695109744D-01-8.331775623326D-09
   -4.689481049995D-10 1.000000000000D+00 1.793000000000D+03 0.000000000000D+00
    2.800000000000D+00 0.000000000000D+00 2.793967723846D-09 5.400000000000D+01
    4.706700000000D+05 4.000000000000D+00
